[{"OBJECT_NAME":"ONEWEB-0307","OBJECT_ID":"2021-083D","EPOCH":"2026-03-09T23:26:01.832640","MEAN_MOTION":13.13469289,"ECCENTRICITY":0.00017362,"INCLINATION":87.9027,"RA_OF_ASC_NODE":339.9741,"ARG_OF_PERICENTER":77.623,"MEAN_ANOMALY":282.5093,"EPHEMERIS_TYPE":0,"CLASSIFICATION_TYPE":"U","NORAD_CAT_ID":49189,"ELEMENT_SET_NO":999,"REV_AT_EPOCH":21790,"BSTAR":0.00089492219,"MEAN_MOTION_DOT":3.4e-6,"MEAN_MOTION_DDOT":0},{"OBJECT_NAME":"USA 15","OBJECT_ID":"1986-014A","EPOCH":"2026-03-09T16:19:19.890048","MEAN_MOTION":14.12399541,"ECCENTRICITY":0.06767877,"INCLINATION":63.29,"RA_OF_ASC_NODE":184.3044,"ARG_OF_PERICENTER":111.2434,"MEAN_ANOMALY":256.2258,"EPHEMERIS_TYPE":0,"CLASSIFICATION_TYPE":"U","NORAD_CAT_ID":16591,"ELEMENT_SET_NO":999,"REV_AT_EPOCH":9386,"BSTAR":0.00091695778,"MEAN_MOTION_DOT":0.00017871,"MEAN_MOTION_DDOT":0}]
